#aV2022  2  5  0  0  0.00000000     288 DD+AD WGS84 FIT  NGA
## 2195 518400.00000000   300.00000000 59615 0.0000000000000
+   32     1  2  3  4  5  6  7  8  9 10 11 12 13 14 15 16 17
+         18 19 20 21 22 23 24 25 26 27 28 29 30 31 32  0  0
+          0  0  0  0  0  0  0  0  0  0  0  0  0  0  0  0  0
+          0  0  0  0  0  0  0  0  0  0  0  0  0  0  0  0  0
+          0  0  0  0  0  0  0  0  0  0  0  0  0  0  0  0  0
++         2  2  2  2  2  2  2  2  2  2  2  2  2  2  2  2  2
++         2  2  2  2  2  2  2  2  2  2  2  2  2  2  2  0  0
++         0  0  0  0  0  0  0  0  0  0  0  0  0  0  0  0  0
++         0  0  0  0  0  0  0  0  0  0  0  0  0  0  0  0  0
++         0  0  0  0  0  0  0  0  0  0  0  0  0  0  0  0  0
%c cc cc ccc ccc cccc cccc cccc cccc ccccc ccccc ccccc ccccc
%c cc cc ccc ccc cccc cccc cccc cccc ccccc ccccc ccccc ccccc
%f  0.0000000  0.000000000  0.00000000000  0.000000000000000
%f  0.0000000  0.000000000  0.00000000000  0.000000000000000
%i    0    0    0    0      0      0      0      0         0
%i    0    0    0    0      0      0      0      0         0
/*      NGA, ST. LOUIS,MO.                                  
/*   EPHEMERIS COMPUTED FROM 2 DAYS OF DATA                 
/*   EPOCHA v7 SMOOTHER                                     
/*   G2139 IERS2010 SATIGS SATAPC                           
*  2022  2  5  4  0  0.00000000
P  1  20379.336107  14078.430423 -10330.202927    439.438738                    
V  1 -12359.862117  -2647.828536 -28438.139576     -0.095929                    
P  2    269.609247 -15676.968644  22093.253391   -650.240970                    
V  2  25830.198745   5858.061470   4083.944363     -0.007770                    
P  3  12819.720038  19702.958196  12366.566006   -107.393384                    
V  3   1363.466589  15870.058808 -26374.811523     -0.165112                    
P  4  12246.939786   9411.466688  21617.502726   -191.365062                    
V  4 -20782.418409  17906.845654   3898.691139      0.021100                    
P  5  -5059.857638 -25886.721637   2154.549659    -70.330047                    
V  5   3626.633217   2110.719886  31666.908115     -0.013204                    
P  6  16741.238344  -7860.684941  19160.895930    191.755748                    
V  6  22593.422834   8420.372002 -16275.113035      0.116102                    
P  7  25871.659469   5254.863287  -4378.138343    307.863582                    
V  7   4809.655551   4441.719402  30564.515759      0.030399                    
P  8   2517.500370  16894.287529 -20268.581420    -54.909737                    
V  8 -19573.906800  16802.786728  11926.543415     -0.015066                    
P  9  19897.155125  -1694.483229  17456.562579   -355.455403                    
V  9 -15062.014321  16559.190673  18666.299547      0.014749                    
P 10 -12841.455770   9074.208777 -21217.769917   -311.864040                    
V 10  -6479.490188 -26520.421142  -7656.865232     -0.101925                    
P 11   2279.435774 -15278.585016  21605.387291    -99.746041                    
V 11  25711.937561   9573.441683   4043.588853      0.135207                    
P 12 -10044.635360 -22420.030606   9999.139538   -166.280316                    
V 12    378.747969 -13205.438272 -28346.657302     -0.056804                    
P 13   6740.581457 -19034.033705 -17324.555982    256.571192                    
V 13  18860.066747 -10937.039785  19682.705074      0.061648                    
P 14  13797.491655  -8251.365292 -21136.761434    -79.984483                    
V 14   5228.997483  26359.100994  -6943.929503     -0.047856                    
P 15  -5490.653091 -16707.894085 -20228.447756    -86.242015                    
V 15  17374.186683 -18022.149563  10701.872943      0.028859                    
P 16   -527.879858  25716.610339   5267.322249   -465.288180                    
V 16  -3703.808731  -6714.411118  31319.101494     -0.050611                    
P 17  22326.538075 -13243.482894  -5297.636827    570.896282                    
V 17  -4333.145969   6220.168019 -31205.072210      0.051749                    
P 18 -25588.770585  -4949.418969  -5389.554061    246.808815                    
V 18  -5668.994417  -4455.946599  30921.205975     -0.078473                    
P 19  20589.200315 -16485.590185   1859.436940    114.773493                    
V 19   3585.406645    367.746836 -32158.608220      0.049885                    
P 20    350.233151 -23777.327755  12084.130311    516.847679                    
V 20   7926.553582  13349.542667  25779.409885     -0.001778                    
P 21  13376.970746  15281.722370 -16761.484176    157.483991                    
V 21 -22128.539361  -3615.607867 -19541.179065      0.006873                    
P 22 -18004.246320  18671.174768   5628.106992    208.880548                    
V 22  -7011.400405   1821.799921 -30816.442195      0.055822                    
P 23 -15803.913406  -3519.169782 -21084.151510      4.315553                    
V 23  -5650.448638 -26107.733632   8505.903505     -0.036138                    
P 24 -17651.730569 -14798.588948 -13866.085037    275.864777                    
V 24  17124.501583   1626.858000 -23636.432097     -0.013453                    
P 25 -15512.601138 -11584.083303  18024.290458    281.024478                    
V 25  -3501.340546 -23152.597909 -17342.183071      0.054226                    
P 26  -7234.305946  19385.796785  16398.536606    180.522818                    
V 26  -7868.545391 -19799.573074  20144.197248      0.032701                    
P 27  -8309.834828  20664.350066 -14355.356994    104.795796                    
V 27 -14737.610868  10582.757072  24472.751759      0.178458                    
P 28  10093.132357 -16841.715071 -17471.215091    407.268908                    
V 28   4206.524137  22787.049848 -18755.949238     -0.081097                    
P 29 -18225.094245  -2073.107881  19187.336502   -476.231977                    
V 29  18629.957221 -15761.288488  15901.719659     -0.047565                    
P 30  23215.621664  -2034.240937 -12891.935245   -511.392465                    
V 30  14659.033752   7943.827158  24765.184130     -0.024184                    
P 31 -15156.716019   9445.574129  19678.760112   -163.248902                    
V 31 -23377.121188  -9301.176409 -12994.456804     -0.017826                    
P 32 -20441.824973  16636.076759  -2192.392593    -62.180108                    
V 32    112.138059  -4248.492985 -31660.871292     -0.065367                    
EOF
